[{"OBJECT_NAME":"STARLINK-30085","OBJECT_ID":"2023-067X","EPOCH":"2026-03-09T19:43:42.532320","MEAN_MOTION":15.27572641,"ECCENTRICITY":0.00017635,"INCLINATION":43.0009,"RA_OF_ASC_NODE":270.021,"ARG_OF_PERICENTER":261.6576,"MEAN_ANOMALY":98.4075,"EPHEMERIS_TYPE":0,"CLASSIFICATION_TYPE":"U","NORAD_CAT_ID":56709,"ELEMENT_SET_NO":999,"REV_AT_EPOCH":15546,"BSTAR":4.9686794e-5,"MEAN_MOTION_DOT":1.105e-5,"MEAN_MOTION_DDOT":0},{"OBJECT_NAME":"FLOCK 4G-26","OBJECT_ID":"2025-009AA","EPOCH":"2026-03-09T19:19:02.910720","MEAN_MOTION":15.27281631,"ECCENTRICITY":0.0001988,"INCLINATION":97.4054,"RA_OF_ASC_NODE":151.3913,"ARG_OF_PERICENTER":299.1273,"MEAN_ANOMALY":60.9767,"EPHEMERIS_TYPE":0,"CLASSIFICATION_TYPE":"U","NORAD_CAT_ID":62633,"ELEMENT_SET_NO":999,"REV_AT_EPOCH":6373,"BSTAR":0.00042468806,"MEAN_MOTION_DOT":0.00011283,"MEAN_MOTION_DDOT":0}]
